[{"OBJECT_NAME":"ONEWEB-0031","OBJECT_ID":"2020-020H","EPOCH":"2026-03-09T22:12:25.984800","MEAN_MOTION":13.11414328,"ECCENTRICITY":0.00019947,"INCLINATION":87.8856,"RA_OF_ASC_NODE":40.8139,"ARG_OF_PERICENTER":85.1583,"MEAN_ANOMALY":274.9773,"EPHEMERIS_TYPE":0,"CLASSIFICATION_TYPE":"U","NORAD_CAT_ID":45431,"ELEMENT_SET_NO":999,"REV_AT_EPOCH":28964,"BSTAR":8.9700342e-5,"MEAN_MOTION_DOT":4.4e-7,"MEAN_MOTION_DDOT":0},{"OBJECT_NAME":"DELTA 1 DEB","OBJECT_ID":"1976-077DC","EPOCH":"2026-03-09T23:48:10.350144","MEAN_MOTION":13.16711667,"ECCENTRICITY":0.00794848,"INCLINATION":101.9979,"RA_OF_ASC_NODE":220.9102,"ARG_OF_PERICENTER":140.0337,"MEAN_ANOMALY":341.2315,"EPHEMERIS_TYPE":0,"CLASSIFICATION_TYPE":"U","NORAD_CAT_ID":10874,"ELEMENT_SET_NO":999,"REV_AT_EPOCH":32441,"BSTAR":0.0030599061,"MEAN_MOTION_DOT":1.137e-5,"MEAN_MOTION_DDOT":0}]
